INMARSAT 4-F2 (SOUTHPA*)
1 28899U 05044A   26098.76821368 -.00000256  00000+0  00000+0 0  9997
2 28899   5.0036  43.7652 0003501 355.8131 217.4974  1.00271483 74825
GSAT-8 (GAGAN/PRN 127)  
1 37605U 11022A   26098.89333480  .00000087  00000+0  00000+0 0  9993
2 37605   1.9513  82.6482 0005386 225.7358 265.4286  1.00273420 52522
LUCH 5A (SDCM/PRN 140)  
1 37951U 11074B   26098.20243398 -.00000045  00000+0  00000+0 0  9992
2 37951   8.5762  74.8215 0003061 289.6757  71.7640  1.00271791 52354
SES-5 (EGNOS/PRN 136)   
1 38652U 12036A   26098.88345477  .00000035  00000+0  00000+0 0  9993
2 38652   0.0594 303.1093 0002049  78.5067 138.5414  1.00270480 43769
GSAT-10 (GAGAN/PRN 128) 
1 38779U 12051B   26098.89888149 -.00000163  00000+0  00000+0 0  9992
2 38779   0.0730 265.7280 0006530 173.0771 164.9419  1.00272963 49407
LUCH 5B (SDCM/PRN 125)  
1 38977U 12061A   26098.70293288 -.00000131  00000+0  00000+0 0  9992
2 38977  10.3353  50.5562 0002083 228.5119 154.6545  1.00273761 48914
ASTRA 5B (EGNOS/PRN 123)
1 39617U 14011B   26098.88709478  .00000139  00000+0  00000+0 0  9990
2 39617   0.0844 299.0672 0002955  64.0507 176.8905  1.00274134 43973
LUCH 5V (SDCM/PRN 141)  
1 39727U 14023A   26098.84295740 -.00000264  00000+0  00000+0 0  9993
2 39727   4.9629  70.4189 0002996 326.1162 198.7311  1.00269217 43663
GSAT-15 (GAGAN/PRN 139) 
1 41028U 15065A   26098.33052787  .00000000  00000+0  00000+0 0  9990
2 41028   0.0135 189.4348 0002955 221.4815 358.1588  1.00270177 38090
EUTELSAT 117 WEST B (W*)
1 41589U 16038B   26098.14618708 -.00000010  00000+0  00000+0 0  9995
2 41589   0.0121  69.4450 0000297 209.0232 213.5674  1.00272041 35965
SES-15 (WAAS/PRN 133)   
1 42709U 17026A   26097.92983822  .00000062  00000+0  00000+0 0  9991
2 42709   0.0302 329.4032 0000751  59.4894  12.8862  1.00271984  6728
QZS-2 (QZSS/PRN 194)    
1 42738U 17028A   26098.26674093 -.00000190  00000+0  00000+0 0  9993
2 42738  39.5404 244.1717 0741811 270.6441 277.3469  1.00252617  6922
QZS-3 (QZSS/PRN 199)    
1 42917U 17048A   26098.90757766 -.00000346  00000+0  00000+0 0  9997
2 42917   0.0699 136.8906 0002130 248.3623 265.6511  1.00269293 31569
QZS-4 (QZSS/PRN 195)    
1 42965U 17062A   26098.55198634 -.00000310  00000+0  00000+0 0  9991
2 42965  40.1506 344.3742 0746777 270.5329 281.1278  1.00271715 31105
BEIDOU-3 G1 (PRN 130)   
1 43683U 18085A   26096.38795007 -.00000147  00000+0  00000+0 0  9999
2 43683   2.8927  99.3053 0012773 290.7520  90.8919  1.00650840 27333
EUTELSAT 5 WEST B (EGN*)
1 44624U 19067A   26098.81016053 -.00000040  00000+0  00000+0 0  9995
2 44624   0.0673  17.5111 0003484  11.7497  94.4692  1.00273250 23742
BEIDOU-3 G2 (PRN 144)   
1 45344U 20017A   26098.89827483 -.00000137  00000+0  00000+0 0  9994
2 45344   2.7252  46.2052 0002896 343.1282 211.2459  1.00271993 22568
BEIDOU-3 G3 (PRN 143)   
1 45807U 20040A   26098.90437098 -.00000350  00000+0  00000+0 0  9992
2 45807   2.2768  67.2309 0004686 331.5846 234.4323  1.00268041 21378
GALAXY 30 (WAAS/PRN 135)
1 46114U 20056C   26098.07330012  .00000039  00000+0  00000+0 0  9990
2 46114   0.0147 173.6635 0002329 208.2699  75.7858  1.00272917 20598
QZS-1R (QZSS/PRN 196)   
1 49336U 21096A   26098.83613457 -.00000216  00000+0  00000+0 0  9993
2 49336  37.3198  80.6045 0750326 270.4583 282.5916  1.00279594 16314
QZS-6 (QZSS/PRN 200)    
1 62876U 25023A   26098.88586410 -.00000232  00000+0  00000+0 0  9992
2 62876   0.0256 283.2982 0002126 109.3726 213.9221  1.00272876  4262
